ONEWEB-0228             
1 48780U 21045P   23260.11690258 -.00000094  00000+0 -28390-3 0  9993
2 48780  87.8939  99.1138 0001856  87.0143 273.1200 13.15551605113447
